{"type": "FeatureCollection", "features": [ {"type": "Feature", "properties": {"norad_id": 30304, "name": "FENGYUN 1C DEB", "group": "fengyun-1c-debris", "lat": -49.929497931908784, "lon": 59.49747952119556, "alt_km": 881.8118530776346, "timestamp": "2025-12-02T07:10:09.390759+00:00", "meta": {"OBJECT_NAME": "FENGYUN 1C DEB", "OBJECT_ID": "1999-025ZR", "EPOCH": "2025-12-01T04:15:52.150752", "MEAN_MOTION": 14.1539741, "ECCENTRICITY": 0.00746171, "INCLINATION": 99.0349, "RA_OF_ASC_NODE": 47.459, "ARG_OF_PERICENTER": 81.9636, "MEAN_ANOMALY": 278.9995, "EPHEMERIS_TYPE": 0, "CLASSIFICATION_TYPE": "U", "NORAD_CAT_ID": 30304, "ELEMENT_SET_NO": 999, "REV_AT_EPOCH": 96655, "BSTAR": 0.001466438, "MEAN_MOTION_DOT": 2.893e-05, "MEAN_MOTION_DDOT": 0}, "tle": {"line1": "1 30304U 99025ZR  25335.17768693  .00002893  00000+0  14664-2 0  9994", "line2": "2 30304  99.0349  47.4590 0074617  81.9636 278.9995 14.15397410966558"}}, "geometry": {"type": "Point", "coordinates": [59.49747952119556, -49.929497931908784]}}, {"type": "Feature", "properties": {"norad_id": 30305, "name": "FENGYUN 1C DEB", "group": "fengyun-1c-debris", "lat": -47.6498604994025, "lon": -72.90078899305688, "alt_km": 1238.0716286093066, "timestamp": "2025-12-02T07:10:09.390769+00:00", "meta": {"OBJECT_NAME": "FENGYUN 1C DEB", "OBJECT_ID": "1999-025ZS", "EPOCH": "2025-12-01T19:20:04.602048", "MEAN_MOTION": 13.60222137, "ECCENTRICITY": 0.0265419, "INCLINATION": 98.5857, "RA_OF_ASC_NODE": 277.126, "ARG_OF_PERICENTER": 129.6404, "MEAN_ANOMALY": 288.8794, "EPHEMERIS_TYPE": 0, "CLASSIFICATION_TYPE": "U", "NORAD_CAT_ID": 30305, "ELEMENT_SET_NO": 999, "REV_AT_EPOCH": 93625, "BSTAR": 0.00024573, "MEAN_MOTION_DOT": 1.98e-06, "MEAN_MOTION_DDOT": 0}, "tle": {"line1": "1 30305U 99025ZS  25335.80560882  .00000198  00000+0  24573-3 0  9992", "line2": "2 30305  98.5857 277.1260 0265419 129.6404 288.8794 13.60222137936251"}}, "geometry": {"type": "Point", "coordinates": [-72.90078899305688, -47.6498604994025]}}, {"type": "Feature", "properties": {"norad_id": 30306, "name": "FENGYUN 1C DEB", "group": "fengyun-1c-debris", "lat": 21.302035500799104, "lon": 14.168579633236362, "alt_km": 716.5504854592018, "timestamp": "2025-12-02T07:10:09.390779+00:00", "meta": {"OBJECT_NAME": "FENGYUN 1C DEB", "OBJECT_ID": "1999-025ZT", "EPOCH": "2025-12-01T14:15:21.767616", "MEAN_MOTION": 14.28112873, "ECCENTRICITY": 0.01139961, "INCLINATION": 98.5886, "RA_OF_ASC_NODE": 16.8537, "ARG_OF_PERICENTER": 30.3229, "MEAN_ANOMALY": 330.4483, "EPHEMERIS_TYPE": 0, "CLASSIFICATION_TYPE": "U", "NORAD_CAT_ID": 30306, "ELEMENT_SET_NO": 999, "REV_AT_EPOCH": 97522, "BSTAR": 0.0010441885, "MEAN_MOTION_DOT": 2.74e-05, "MEAN_MOTION_DDOT": 0}, "tle": {"line1": "1 30306U 99025ZT  25335.59400194  .00002740  00000+0  10442-2 0  9992", "line2": "2 30306  98.5886  16.8537 0113996  30.3229 330.4483 14.28112873975223"}}, "geometry": {"type": "Point", "coordinates": [14.168579633236362, 21.302035500799104]}}, {"type": "Feature", "properties": {"norad_id": 30309, "name": "FENGYUN 1C DEB", "group": "fengyun-1c-debris", "lat": 34.61066845247397, "lon": -140.06908578924205, "alt_km": 896.3306310682055, "timestamp": "2025-12-02T07:10:09.390789+00:00", "meta": {"OBJECT_NAME": "FENGYUN 1C DEB", "OBJECT_ID": "1999-025ZW", "EPOCH": "2025-12-01T14:57:34.542144", "MEAN_MOTION": 13.935047, "ECCENTRICITY": 0.00929497, "INCLINATION": 99.2276, "RA_OF_ASC_NODE": 32.8158, "ARG_OF_PERICENTER": 222.0112, "MEAN_ANOMALY": 137.3894, "EPHEMERIS_TYPE": 0, "CLASSIFICATION_TYPE": "U", "NORAD_CAT_ID": 30309, "ELEMENT_SET_NO": 999, "REV_AT_EPOCH": 95878, "BSTAR": 0.0002099848, "MEAN_MOTION_DOT": 2.4e-06, "MEAN_MOTION_DDOT": 0}, "tle": {"line1": "1 30309U 99025ZW  25335.62331646  .00000240  00000+0  20998-3 0  9995", "line2": "2 30309  99.2276  32.8158 0092949 222.0112 137.3894 13.93504700958786"}}, "geometry": {"type": "Point", "coordinates": [-140.06908578924205, 34.61066845247397]}}, {"type": "Feature", "properties": {"norad_id": 30310, "name": "FENGYUN 1C DEB", "group": "fengyun-1c-debris", "lat": -47.13303495143604, "lon": 166.88017766143443, "alt_km": 1035.0093632193557, "timestamp": "2025-12-02T07:10:09.390799+00:00", "meta": {"OBJECT_NAME": "FENGYUN 1C DEB", "OBJECT_ID": "1999-025ZX", "EPOCH": "2025-12-01T18:09:24.669792", "MEAN_MOTION": 14.08334442, "ECCENTRICITY": 0.0241525, "INCLINATION": 98.666, "RA_OF_ASC_NODE": 355.816, "ARG_OF_PERICENTER": 28.6407, "MEAN_ANOMALY": 332.7787, "EPHEMERIS_TYPE": 0, "CLASSIFICATION_TYPE": "U", "NORAD_CAT_ID": 30310, "ELEMENT_SET_NO": 999, "REV_AT_EPOCH": 96577, "BSTAR": 0.00067491, "MEAN_MOTION_DOT": 1.467e-05, "MEAN_MOTION_DDOT": 0}, "tle": {"line1": "1 30310U 99025ZX  25335.75653553  .00001467  00000+0  67491-3 0  9996", "line2": "2 30310  98.6660 355.8160 0241525  28.6407 332.7787 14.08334442965772"}}, "geometry": {"type": "Point", "coordinates": [166.88017766143443, -47.13303495143604]}}, {"type": "Feature", "properties": {"norad_id": 30311, "name": "FENGYUN 1C DEB", "group": "fengyun-1c-debris", "lat": 48.62722545288254, "lon": -97.09549256148574, "alt_km": 973.8371543973708, "timestamp": "2025-12-02T07:10:09.390809+00:00", "meta": {"OBJECT_NAME": "FENGYUN 1C DEB", "OBJECT_ID": "1999-025ZY", "EPOCH": "2025-12-01T18:19:23.807136", "MEAN_MOTION": 13.77871003, "ECCENTRICITY": 0.0164881, "INCLINATION": 99.14, "RA_OF_ASC_NODE": 71.8574, "ARG_OF_PERICENTER": 226.0586, "MEAN_ANOMALY": 132.6862, "EPHEMERIS_TYPE": 0, "CLASSIFICATION_TYPE": "U", "NORAD_CAT_ID": 30311, "ELEMENT_SET_NO": 999, "REV_AT_EPOCH": 94809, "BSTAR": 0.0004828, "MEAN_MOTION_DOT": 4.92e-06, "MEAN_MOTION_DDOT": 0}, "tle": {"line1": "1 30311U 99025ZY  25335.76346999  .00000492  00000+0  48280-3 0  9993", "line2": "2 30311  99.1400  71.8574 0164881 226.0586 132.6862 13.77871003948097"}}, "geometry": {"type": "Point", "coordinates": [-97.09549256148574, 48.62722545288254]}}, {"type": "Feature", "properties": {"norad_id": 30312, "name": "FENGYUN 1C DEB", "group": "fengyun-1c-debris", "lat": -22.301881454586937, "lon": -128.56540202556653, "alt_km": 738.8426591572616, "timestamp": "2025-12-02T07:10:09.390819+00:00", "meta": {"OBJECT_NAME": "FENGYUN 1C DEB", "OBJECT_ID": "1999-025ZZ", "EPOCH": "2025-12-01T19:10:40.048032", "MEAN_MOTION": 14.45510858, "ECCENTRICITY": 0.0011552, "INCLINATION": 98.8676, "RA_OF_ASC_NODE": 54.5843, "ARG_OF_PERICENTER": 238.0323, "MEAN_ANOMALY": 245.9265, "EPHEMERIS_TYPE": 0, "CLASSIFICATION_TYPE": "U", "NORAD_CAT_ID": 30312, "ELEMENT_SET_NO": 999, "REV_AT_EPOCH": 97762, "BSTAR": 0.0025314, "MEAN_MOTION_DOT": 8.896e-05, "MEAN_MOTION_DDOT": 0}, "tle": {"line1": "1 30312U 99025ZZ  25335.79907463  .00008896  00000+0  25314-2 0  9994", "line2": "2 30312  98.8676  54.5843 0011552 238.0323 245.9265 14.45510858977624"}}, "geometry": {"type": "Point", "coordinates": [-128.56540202556653, -22.301881454586937]}}, {"type": "Feature", "properties": {"norad_id": 30313, "name": "FENGYUN 1C DEB", "group": "fengyun-1c-debris", "lat": -31.22796887242756, "lon": 67.78247299175956, "alt_km": 781.6984576791656, "timestamp": "2025-12-02T07:10:09.390830+00:00", "meta": {"OBJECT_NAME": "FENGYUN 1C DEB", "OBJECT_ID": "1999-025AAA", "EPOCH": "2025-12-01T20:04:32.972736", "MEAN_MOTION": 14.2531633, "ECCENTRICITY": 0.0056351, "INCLINATION": 98.8769, "RA_OF_ASC_NODE": 61.8778, "ARG_OF_PERICENTER": 8.4974, "MEAN_ANOMALY": 109.9428, "EPHEMERIS_TYPE": 0, "CLASSIFICATION_TYPE": "U", "NORAD_CAT_ID": 30313, "ELEMENT_SET_NO": 999, "REV_AT_EPOCH": 96934, "BSTAR": 0.0016221, "MEAN_MOTION_DOT": 3.84e-05, "MEAN_MOTION_DDOT": 0}, "tle": {"line1": "1 30313U 99025AAA 25335.83649274  .00003840  00000+0  16221-2 0  9994", "line2": "2 30313  98.8769  61.8778 0056351   8.4974 109.9428 14.25316330969340"}}, "geometry": {"type": "Point", "coordinates": [67.78247299175956, -31.22796887242756]}}, {"type": "Feature", "properties": {"norad_id": 30314, "name": "FENGYUN 1C DEB", "group": "fengyun-1c-debris", "lat": -2.4148178060098178, "lon": -12.344386548843778, "alt_km": 986.8438507414057, "timestamp": "2025-12-02T07:10:09.390840+00:00", "meta": {"OBJECT_NAME": "FENGYUN 1C DEB", "OBJECT_ID": "1999-025AAB", "EPOCH": "2025-11-30T23:27:34.977024", "MEAN_MOTION": 14.01131097, "ECCENTRICITY": 0.01427813, "INCLINATION": 98.3813, "RA_OF_ASC_NODE": 166.7983, "ARG_OF_PERICENTER": 31.0827, "MEAN_ANOMALY": 329.869, "EPHEMERIS_TYPE": 0, "CLASSIFICATION_TYPE": "U", "NORAD_CAT_ID": 30314, "ELEMENT_SET_NO": 999, "REV_AT_EPOCH": 95944, "BSTAR": 0.0011375144, "MEAN_MOTION_DOT": 1.828e-05, "MEAN_MOTION_DDOT": 0}, "tle": {"line1": "1 30314U 99025AAB 25334.97748816  .00001828  00000+0  11375-2 0  9990", "line2": "2 30314  98.3813 166.7983 0142781  31.0827 329.8690 14.01131097959444"}}, "geometry": {"type": "Point", "coordinates": [-12.344386548843778, -2.4148178060098178]}}, {"type": "Feature", "properties": {"norad_id": 30315, "name": "FENGYUN 1C DEB", "group": "fengyun-1c-debris", "lat": 34.311291032002494, "lon": -19.812586472441623, "alt_km": 800.5905597983292, "timestamp": "2025-12-02T07:10:09.390850+00:00", "meta": {"OBJECT_NAME": "FENGYUN 1C DEB", "OBJECT_ID": "1999-025AAC", "EPOCH": "2025-12-01T14:39:46.012608", "MEAN_MOTION": 14.19039309, "ECCENTRICITY": 0.00358254, "INCLINATION": 98.6025, "RA_OF_ASC_NODE": 345.4495, "ARG_OF_PERICENTER": 32.2255, "MEAN_ANOMALY": 91.0693, "EPHEMERIS_TYPE": 0, "CLASSIFICATION_TYPE": "U", "NORAD_CAT_ID": 30315, "ELEMENT_SET_NO": 999, "REV_AT_EPOCH": 97549, "BSTAR": 0.00031979644, "MEAN_MOTION_DOT": 6.3e-06, "MEAN_MOTION_DDOT": 0}, "tle": {"line1": "1 30315U 99025AAC 25335.61094922  .00000630  00000+0  31980-3 0  9990", "line2": "2 30315  98.6025 345.4495 0035825  32.2255  91.0693 14.19039309975491"}}, "geometry": {"type": "Point", "coordinates": [-19.812586472441623, 34.311291032002494]}}]}